IRIDIUM 106             
1 41917U 17003A   24282.55109026  .00000209  00000+0  67554-4 0  9990
2 41917  86.4012 346.2281 0002452 100.1492 259.9980 14.34218368404821
IRIDIUM 103             
1 41918U 17003B   24282.46862874  .00001200  00000+0  42118-3 0  9998
2 41918  86.4012 346.1637 0002002 110.4056 249.7355 14.34220864404835
IRIDIUM 109             
1 41919U 17003C   24282.12612772  .00000835  00000+0  29122-3 0  9995
2 41919  86.4013 346.3563 0001713  92.1181 268.0211 14.34223250404758
IRIDIUM 102             
1 41920U 17003D   24282.58280122  .00000491  00000+0  16825-3 0  9991
2 41920  86.4015 346.1022 0002148  92.5555 267.5887 14.34218989404905
IRIDIUM 105             
1 41921U 17003E   24282.34422629  .00002515  00000+0  89057-3 0  9992
2 41921  86.3952 314.6406 0002189  92.7798 267.3649 14.34232756406721
IRIDIUM 104             
1 41922U 17003F   24282.59548411  .00001343  00000+0  47246-3 0  9990
2 41922  86.4012 346.1299 0001701  95.4419 264.6971 14.34221194404897
IRIDIUM 114             
1 41923U 17003G   24281.90414725 -.00000309  00000+0 -11745-3 0  9993
2 41923  86.4010 346.4037 0001987 100.9927 259.1492 14.34215899404770
IRIDIUM 108             
1 41924U 17003H   24281.79289844  .00000036  00000+0  56229-5 0  9996
2 41924  86.3947 314.7889 0002376  94.8276 265.3191 14.34215591406612
